{
  "links" : {
    "next" : "https://api.nasa.gov/neo/rest/v1/feed?start_date=2006-06-16&end_date=2006-06-16&detailed=true&api_key=t0TVs3DtDT2H8Oy2Zy8m2eVrNsAVKAexjcZXUckd",
    "prev" : "https://api.nasa.gov/neo/rest/v1/feed?start_date=2006-06-14&end_date=2006-06-14&detailed=true&api_key=t0TVs3DtDT2H8Oy2Zy8m2eVrNsAVKAexjcZXUckd",
    "self" : "https://api.nasa.gov/neo/rest/v1/feed?start_date=2006-06-15&end_date=2006-06-15&detailed=true&api_key=t0TVs3DtDT2H8Oy2Zy8m2eVrNsAVKAexjcZXUckd"
  },
  "element_count" : 7,
  "near_earth_objects" : {
    "2006-06-15" : [ {
      "links" : {
        "self" : "https://api.nasa.gov/neo/rest/v1/neo/3668968?api_key=t0TVs3DtDT2H8Oy2Zy8m2eVrNsAVKAexjcZXUckd"
      },
      "neo_reference_id" : "3668968",
      "name" : "(2014 HN2)",
      "nasa_jpl_url" : "http://ssd.jpl.nasa.gov/sbdb.cgi?sstr=3668968",
      "absolute_magnitude_h" : 26.5,
      "estimated_diameter" : {
        "kilometers" : {
          "estimated_diameter_min" : 0.0133215567,
          "estimated_diameter_max" : 0.0297879063
        },
        "meters" : {
          "estimated_diameter_min" : 13.3215566698,
          "estimated_diameter_max" : 29.7879062798
        },
        "miles" : {
          "estimated_diameter_min" : 0.008277629,
          "estimated_diameter_max" : 0.0185093411
        },
        "feet" : {
          "estimated_diameter_min" : 43.7058959846,
          "estimated_diameter_max" : 97.7293544391
        }
      },
      "is_potentially_hazardous_asteroid" : false,
      "close_approach_data" : [ {
        "close_approach_date" : "2006-06-15",
        "epoch_date_close_approach" : 1150354800000,
        "relative_velocity" : {
          "kilometers_per_second" : "9.392876579",
          "kilometers_per_hour" : "33814.3556842619",
          "miles_per_hour" : "21010.9256194793"
        },
        "miss_distance" : {
          "astronomical" : "0.226026277",
          "lunar" : "87.9242248535",
          "kilometers" : "33813052",
          "miles" : "21010456"
        },
        "orbiting_body" : "Earth"
      } ],
      "orbital_data" : {
        "orbit_id" : "13",
        "orbit_determination_date" : "2017-04-06 08:41:32",
        "orbit_uncertainty" : "6",
        "minimum_orbit_intersection" : ".00679552",
        "jupiter_tisserand_invariant" : "6.454",
        "epoch_osculation" : "2458000.5",
        "eccentricity" : ".1182247299365763",
        "semi_major_axis" : ".9264453813916685",
        "inclination" : "1.234490490717355",
        "ascending_node_longitude" : "198.9085351138594",
        "orbital_period" : "325.7077989623599",
        "perihelion_distance" : ".81691662637565",
        "perihelion_argument" : "207.2993861644829",
        "aphelion_distance" : "1.035974136407687",
        "perihelion_time" : "2457926.742645254568",
        "mean_anomaly" : "81.52291039068395",
        "mean_motion" : "1.105285170164449",
        "equinox" : "J2000"
      }
    } ]
  }
}